NORAD_CAT_ID,OBJECT_NAME,OBJECT_TYPE,EPOCH,MEAN_MOTION,ECCENTRICITY,INCLINATION,RA_OF_ASC_NODE,ARG_OF_PERICENTER,MEAN_ANOMALY,BSTAR,MEAN_MOTION_DOT,MEAN_MOTION_DDOT,TLE_LINE0,TLE_LINE1,TLE_LINE2,SEMIMAJOR_AXIS,PERIOD,APOGEE,PERIGEE,DECAYED
53612.0,STARLINK-4658,PAYLOAD,2022-09-02 14:00:01,15.88854897,0.0033927,53.2169,261.3279,57.5049,185.5558,-0.0049463,-0.01501222,0.00062197,0 STARLINK-4658,1 53612U 22104AA  22245.58334491 -.01501222  62197-3 -49463-2 0  9999,2 53612  53.2169 261.3279 0033927  57.5049 185.5558 15.88854897   885,6683.629,90.631,328.17,282.819,0.0
53612.0,STARLINK-4658,PAYLOAD,2022-09-03 06:00:00,15.86985244,0.0027065,53.2178,257.9552,58.8265,37.441,-0.0046876999999999,-0.0127359,0.00045291,0 STARLINK-4658,1 53612U 22104AA  22246.25001157 -.01273590  45291-3 -46877-2 0  9990,2 53612  53.2178 257.9552 0027065  58.8265  37.4410 15.86985244   993,6688.878000000002,90.738,328.846,292.639,0.0
53612.0,STARLINK-4658,PAYLOAD,2022-09-03 14:00:01,15.86118133,0.0024193,53.2169,256.2737,58.6202,142.6552,-0.0049699,-0.01285431,0.000457,0 STARLINK-4658,1 53612U 22104AA  22246.58334491 -.01285431  45700-3 -49699-2 0  9993,2 53612  53.2169 256.2737 0024193  58.6202 142.6552 15.86118133  1305,6691.315,90.788,329.36800000000005,296.992,0.0
53612.0,STARLINK-4658,PAYLOAD,2022-09-03 20:00:01,15.85505872,0.0021544,53.2174,255.012,57.6238,131.7018,-0.0053842,-0.01189172,0.0,0 STARLINK-4658,1 53612U 22104AA  22246.83334491 -.01189172  00000-0 -53842-2 0  9992,2 53612  53.2174 255.0120 0021544  57.6238 131.7018 15.85505872  1089,6693.038000000001,90.823,329.32199999999995,300.483,0.0
53612.0,STARLINK-4658,PAYLOAD,2022-09-03 22:00:00,15.85298275,0.0020493,53.2172,254.5918,57.3014,247.9147,-0.0055383,-0.01205594,0.0,0 STARLINK-4658,1 53612U 22104AA  22246.91667824 -.01205594  00000-0 -55383-2 0  9999,2 53612  53.2172 254.5918 0020493  57.3014 247.9147 15.85298275  1301,6693.621999999999,90.835,329.204,301.77,0.0
53612.0,STARLINK-4658,PAYLOAD,2022-09-04 06:00:00,15.84386041,0.0016891999999999,53.2175,252.9147,58.2399,349.913,-0.00545,-0.01135451,0.0,0 STARLINK-4658,1 53612U 22104AA  22247.25001157 -.01135451  00000-0 -54500-2 0  9992,2 53612  53.2175 252.9147 0016892  58.2399 349.9130 15.84386041  1149,6696.191,90.887,329.367,306.745,0.0
53612.0,STARLINK-4658,PAYLOAD,2022-09-04 14:00:01,15.83611176,0.0014111,53.2171,251.2392,56.3106,93.7411,-0.0063726999999999,-0.01279808,0.0,0 STARLINK-4658,1 53612U 22104AA  22247.58335648 -.01279808  00000-0 -63727-2 0  9999,2 53612  53.2171 251.2392 0014111  56.3106  93.7411 15.83611176  1309,6698.375,90.931,329.69199999999995,310.788,0.0
53612.0,STARLINK-4658,PAYLOAD,2022-09-04 16:00:00,15.83356014,0.001307,53.2173,250.82,56.0532,209.2621,-0.0062347,-0.01239775,0.0,0 STARLINK-4658,1 53612U 22104AA  22247.66667824 -.01239775  00000-0 -62347-2 0  9998,2 53612  53.2173 250.8200 0013070  56.0532 209.2621 15.83356014  1211,6699.095,90.946,329.716,312.204,0.0
53612.0,STARLINK-4658,PAYLOAD,2022-09-04 20:00:01,15.82886444,0.0011414,53.2176,249.9823,53.6835,82.061,-0.0060354,-0.01177966,0.0,0 STARLINK-4658,1 53612U 22104AA  22247.83334491 -.01177966  00000-0 -60354-2 0  9997,2 53612  53.2176 249.9823 0011414  53.6835  82.0610 15.82886444  1302,6700.42,90.973,329.932,314.637,0.0
53612.0,STARLINK-4658,PAYLOAD,2022-09-05 04:00:00,15.82046322,0.0007956,53.2178,248.311,48.5763,187.2098,-0.0065766999999999,-0.01223001,0.0,0 STARLINK-4658,1 53612U 22104AA  22248.16667824 -.01223001  00000-0 -65767-2 0  9998,2 53612  53.2178 248.3110 0007956  48.5763 187.2098 15.82046322  1294,6702.792,91.021,329.9890000000001,319.324,0.0
53612.0,STARLINK-4658,PAYLOAD,2022-09-05 14:00:01,15.80936456,0.0004373,53.2172,246.224,32.2475,57.1453,-0.0066722,-0.01179325,0.0,0 STARLINK-4658,1 53612U 22104AA  22248.58334491 -.01179325  00000-0 -66722-2 0  9996,2 53612  53.2172 246.2240 0004373  32.2475  57.1453 15.80936456  1305,6705.928000000001,91.085,330.726,324.861,0.0
53612.0,STARLINK-4658,PAYLOAD,2022-09-05 20:00:01,15.80287973,0.0003545,53.2173,244.9718,18.1771,54.5923,-0.0069107,-0.01183954,0.0,0 STARLINK-4658,1 53612U 22104AA  22248.83334491 -.01183954  00000-0 -69107-2 0  9997,2 53612  53.2173 244.9718 0003545  18.1771  54.5923 15.80287973  1309,6707.763000000001,91.123,332.006,327.25,0.0
53612.0,STARLINK-4658,PAYLOAD,2022-09-06 04:00:00,15.79427274,0.000318,53.2175,243.307,9.1653,160.5231,-0.0072628,-0.01194259,0.0,0 STARLINK-4658,1 53612U 22104AA  22249.16667824 -.01194259  00000-0 -72628-2 0  9995,2 53612  53.2175 243.3070 0003180   9.1653 160.5231 15.79427274  1453,6710.199000000001,91.172,334.1980000000001,329.93,0.0
53612.0,STARLINK-4658,PAYLOAD,2022-09-06 14:00:01,15.78477597,0.0002827,53.2169,241.2278,344.1855,35.1183,-0.0087966,-0.01386907,0.0,0 STARLINK-4658,1 53612U 22104AA  22249.58334491 -.01386907  00000-0 -87966-2 0  9996,2 53612  53.2169 241.2278 0002827 344.1855  35.1183 15.78477597  1305,6712.89,91.227,336.653,332.858,0.0
53612.0,STARLINK-4658,PAYLOAD,2022-09-06 20:00:01,15.77690814,0.0002953,53.2174,239.9804,4.0395,356.3663,-0.0078541,-0.01193201,0.0,0 STARLINK-4658,1 53612U 22104AA  22249.83334491 -.01193201  00000-0 -78541-2 0  9996,2 53612  53.2174 239.9804 0002953   4.0395 356.3663 15.77690814  1557,6715.121999999999,91.273,338.97,335.004,0.0
53612.0,STARLINK-4658,PAYLOAD,2022-09-06 22:00:00,15.77475042,0.0003105,53.2175,239.5651,8.2382,105.7132,-0.0079431,-0.01194919,0.0,0 STARLINK-4658,1 53612U 22104AA  22249.91667824 -.01194919  00000-0 -79431-2 0  9990,2 53612  53.2175 239.5651 0003105   8.2382 105.7132 15.77475042  1300,6715.734,91.285,339.685,335.514,0.0
53612.0,STARLINK-4658,PAYLOAD,2022-09-07 12:00:00,15.75960852,0.0001094,53.217,236.6657,315.0867,231.8595,-0.0085582,-0.01201033,0.0,0 STARLINK-4658,1 53612U 22104AA  22250.50001157 -.01201033  00000-0 -85582-2 0  9998,2 53612  53.2170 236.6657 0001094 315.0867 231.8595 15.75960852  1660,6720.035,91.373,342.636,341.165,0.0
53612.0,STARLINK-4658,PAYLOAD,2022-09-07 14:00:01,15.75782435,7.25e-05,53.2167,236.2509,357.9994,301.953,-0.009009,-0.0127027999999999,0.0,0 STARLINK-4658,1 53612U 22104AA  22250.58334491 -.01270280  00000-0 -90090-2 0  9996,2 53612  53.2167 236.2509 0000725 357.9994 301.9530 15.75782435  1302,6720.543000000002,91.383,342.895,341.92,0.0
53612.0,STARLINK-4658,PAYLOAD,2022-09-07 22:00:00,15.74872499,0.0001252,53.2173,234.5948,45.0684,346.3518,-0.0089366,-0.0119597,0.0,0 STARLINK-4658,1 53612U 22104AA  22250.91667824 -.01195970  00000-0 -89366-2 0  9998,2 53612  53.2173 234.5948 0001252  45.0684 346.3518 15.74872499  1302,6723.130999999999,91.436,345.838,344.154,0.0
53612.0,STARLINK-4658,PAYLOAD,2022-09-08 14:00:01,15.73216979,0.0001261,53.2174,231.2931,66.1264,145.1357,-0.0001693,-0.00024328,0.0,0 STARLINK-4658,1 53612U 22104AA  22251.58334491 -.00024328  00000-0 -16930-3 0  9998,2 53612  53.2174 231.2931 0001261  66.1264 145.1357 15.73216979  1307,6727.847,91.532,350.56,348.86300000000006,0.0
53612.0,STARLINK-4658,PAYLOAD,2022-09-08 22:00:00,15.73127534,0.0001164,53.2168,229.6415,71.3789,228.8725,0.00073118,0.0010294,0.0,0 STARLINK-4658,1 53612U 22104AA  22251.91667824  .00102940  00000-0  73118-3 0  9990,2 53612  53.2168 229.6415 0001164  71.3789 228.8725 15.73127534  1889,6728.102,91.537,350.75,349.184,0.0
53612.0,STARLINK-4658,PAYLOAD,2022-09-09 04:00:00,15.73215336,0.0001429,53.2151,228.4048,71.5111,205.4647,-0.00011966,-0.0001739,0.0,0 STARLINK-4658,1 53612U 22104AA  22252.16667824 -.00017390  00000-0 -11966-3 0  9997,2 53612  53.2151 228.4048 0001429  71.5111 205.4647 15.73215336  1922,6727.851,91.532,350.67800000000005,348.755,0.0
53612.0,STARLINK-4658,PAYLOAD,2022-09-09 14:00:01,15.73215312,0.0001274999999999,53.2148,226.3423,72.9269,45.2357,-0.00011283,-0.00016434,0.0,0 STARLINK-4658,1 53612U 22104AA  22252.58334491 -.00016434  00000-0 -11283-3 0  9994,2 53612  53.2148 226.3423 0001275  72.9269  45.2357 15.73215312  1304,6727.852,91.532,350.574,348.8590000000001,0.0
53612.0,STARLINK-4658,PAYLOAD,2022-09-09 20:00:01,15.73212651,0.0001279,53.215,225.1039,82.9875,11.8797,4.3714e-05,5.522e-05,0.0,0 STARLINK-4658,1 53612U 22104AA  22252.83334491  .00005522  00000-0  43714-4 0  9991,2 53612  53.2150 225.1039 0001279  82.9875  11.8797 15.73212651  2036,6727.859,91.532,350.585,348.86400000000015,0.0
53612.0,STARLINK-4658,PAYLOAD,2022-09-09 22:00:00,15.73235338,0.0001346,53.2153,224.6915,84.9179,122.1783,-0.00025196,-0.00035884,0.0,0 STARLINK-4658,1 53612U 22104AA  22252.91667824 -.00035884  00000-0 -25196-3 0  9998,2 53612  53.2153 224.6915 0001346  84.9179 122.1783 15.73235338  1307,6727.794,91.531,350.565,348.754,0.0
53612.0,STARLINK-4658,PAYLOAD,2022-09-10 04:00:00,15.73174718,0.0001463,53.2157,223.4565,75.4624,108.329,0.00025821,0.00035733,0.0,0 STARLINK-4658,1 53612U 22104AA  22253.16667824  .00035733  00000-0  25821-3 0  9992,2 53612  53.2157 223.4565 0001463  75.4624 108.3290 15.73174718  2088,6727.967,91.535,350.81699999999995,348.848,0.0
53612.0,STARLINK-4658,PAYLOAD,2022-09-10 14:00:01,15.73204554,0.0001283,53.2156,221.3936,76.9838,307.9625,-0.00022826,-0.00032537,0.0,0 STARLINK-4658,1 53612U 22104AA  22253.58334491 -.00032537  00000-0 -22826-3 0  9992,2 53612  53.2156 221.3936 0001283  76.9838 307.9625 15.73204554  1304,6727.882,91.533,350.61,348.884,0.0
53612.0,STARLINK-4658,PAYLOAD,2022-09-10 20:00:01,15.73189872,0.0001293,53.2156,220.1553,83.1123,278.5251,8.230200000000001e-05,0.00010941,0.0,0 STARLINK-4658,1 53612U 22104AA  22253.83334491  .00010941  00000-0  82302-4 0  9999,2 53612  53.2156 220.1553 0001293  83.1123 278.5251 15.73189872  2184,6727.924,91.534,350.659,348.9190000000001,0.0
53612.0,STARLINK-4658,PAYLOAD,2022-09-10 22:00:00,15.73219036,0.0001389,53.2158,219.7432,85.4115,28.4484,-0.00027894,-0.00039615,0.0,0 STARLINK-4658,1 53612U 22104AA  22253.91667824 -.00039615  00000-0 -27894-3 0  9992,2 53612  53.2158 219.7432 0001389  85.4115  28.4484 15.73219036  1307,6727.840999999999,91.532,350.64,348.771,0.0
